PathFileType	4	(X/Y/Z)	C:\Users\WrightLab\Desktop\Jo\P5V39.trc
DataRate	CameraRate	NumFrames	NumMarkers	Units	OrigDataRate	OrigDataStartFrame	OrigNumFrames
100.00	100.00	      1142	19	mm	100.00	1	      1142
Frame#	Time	Headset_Front			Headset_Back			Headset_Left			Headset_Right			Left_Shoulder			Right_Shoulder			Sternum			C7			Left Elbow			Right Elbow			Left Wrist			Right Wrist			Left ASIS			Right ASIS			S2			Left Knee			Right Knee			Left Ankle			Right Ankle			
		X1	Y1	Z1	X2	Y2	Z2	X3	Y3	Z3	X4	Y4	Z4	X5	Y5	Z5	X6	Y6	Z6	X7	Y7	Z7	X8	Y8	Z8	X9	Y9	Z9	X10	Y10	Z10	X11	Y11	Z11	X12	Y12	Z12	X13	Y13	Z13	X14	Y14	Z14	X15	Y15	Z15	X16	Y16	Z16	X17	Y17	Z17	X18	Y18	Z18	X19	Y19	Z19	

1	0.000																																																										
2	0.010																																																										
3	0.020																																																										
4	0.030																																																										
5	0.040																																																										
6	0.050																																																										
7	0.060																																																										
8	0.070																																																										
9	0.080																																																										
10	0.090																																																										
11	0.100																																																										
12	0.110																																																										
13	0.120																																																										
14	0.130																																																										
15	0.140																																																										
16	0.150																																																										
17	0.160																																																										
18	0.170																																																										
19	0.180																																																										
20	0.190																																																										
21	0.200																																																										
22	0.210																																																										
23	0.220																																																										
24	0.230																																																										
25	0.240																																																										
26	0.250																																																										
27	0.260																																																										
28	0.270																																																										
29	0.280																																																										
30	0.290																																																										
31	0.300																																																										
32	0.310																																																										
33	0.320																																																										
34	0.330																																																										
35	0.340																																																										
36	0.350																																																										
37	0.360																																																										
38	0.370																																																										
39	0.380																																																										
40	0.390																																																										
41	0.400																																																										
42	0.410																																																										
43	0.420																																																										
44	0.430																																																										
45	0.440																																																										
46	0.450																																																										
47	0.460																																																										
48	0.470																																																										
49	0.480																																																										
50	0.490																																																										
51	0.500																																																										
52	0.510																																																										
53	0.520																																																										
54	0.530																																																										
55	0.540																																																										
56	0.550																																																										
57	0.560																																																										
58	0.570																																																										
59	0.580																																																										
60	0.590																																																										
61	0.600																																																										
62	0.610																																																										
63	0.620																																																										
64	0.630																																																										
65	0.640																																																										
66	0.650																																																										
67	0.660																																																										
68	0.670																																																										
69	0.680																																																										
70	0.690																																																										
71	0.700																																																										
72	0.710																																																										
73	0.720																																																										
74	0.730																																																										
75	0.740																																																										
76	0.750																																																										
77	0.760																																																										
78	0.770																																																										
79	0.780																																																										
80	0.790																																																										
81	0.800																																																										
82	0.810																																																										
83	0.820																																																										
84	0.830																																																										
85	0.840																																																										
86	0.850																																																										
87	0.860																																																										
88	0.870																																																										
89	0.880																																																										
90	0.890																																																										
91	0.900																																																										
92	0.910																																																										
93	0.920																																																										
94	0.930																																																										
95	0.940																																																										
96	0.950																																																										
97	0.960																																																										
98	0.970																																																										
99	0.980																																																										
100	0.990																																																										
101	1.000																																																										
102	1.010																																																										
103	1.020																																																										
104	1.030																																																										
105	1.040																																																										
106	1.050																																																										
107	1.060																																																										
108	1.070																																																										
109	1.080																																																										
110	1.090																																																										
111	1.100																																																										
112	1.110																																																										
113	1.120																																																										
114	1.130																																																										
115	1.140																																																										
116	1.150																																																										
117	1.160																																																										
118	1.170																																																										
119	1.180																																																										
120	1.190																																																										
121	1.200																																																										
122	1.210																																																										
123	1.220																																																										
124	1.230																																																										
125	1.240																																																										
126	1.250																																																										
127	1.260																																																										
128	1.270																																																										
129	1.280																																																										
130	1.290																																																										
131	1.300																																																										
132	1.310																																																										
133	1.320																																																										
134	1.330																																																										
135	1.340																																																										
136	1.350																																																										
137	1.360																																																										
138	1.370																																																										
139	1.380																																																										
140	1.390																																																										
141	1.400																																																										
142	1.410																																																										
143	1.420																																																										
144	1.430																																																										
145	1.440																																																										
146	1.450																																																										
147	1.460																																																										
148	1.470																																																										
149	1.480																																																										
150	1.490																																																										
151	1.500																																																										
152	1.510																																																										
153	1.520																																																										
154	1.530																																																										
155	1.540																																																										
156	1.550																																																										
157	1.560																																																										
158	1.570																																																										
159	1.580																																																										
160	1.590																																																										
161	1.600																																																										
162	1.610																																																										
163	1.620																																																										
164	1.630																																																										
165	1.640																																																										
166	1.650																																																										
167	1.660																																																										
168	1.670																																																										
169	1.680																																																										
170	1.690																																																										
171	1.700																																																										
172	1.710																																																										
173	1.720																																																										
174	1.730																																																										
175	1.740																																																										
176	1.750																																																										
177	1.760																																																										
178	1.770																																																										
179	1.780																																																										
180	1.790																																																										
181	1.800																																																										
182	1.810																																																										
183	1.820																																																										
184	1.830																																																										
185	1.840																																																										
186	1.850																																																										
187	1.860																																																										
188	1.870																																																										
189	1.880																																																										
190	1.890																																																										
191	1.900																																																										
192	1.910																																																										
193	1.920																																																										
194	1.930																																																										
195	1.940																																																										
196	1.950																																																										
197	1.960																																																										
198	1.970																																																										
199	1.980																																																										
200	1.990																																																										
201	2.000																																																										
202	2.010																																																										
203	2.020																																																										
204	2.030																																																										
205	2.040																																																										
206	2.050																																																										
207	2.060																																																										
208	2.070																																																										
209	2.080																																																										
210	2.090																																																										
211	2.100																																																										
212	2.110																																																										
213	2.120																																																										
214	2.130																																																										
215	2.140																																																										
216	2.150																																																										
217	2.160																																																										
218	2.170																																																										
219	2.180																																																										
220	2.190																																																										
221	2.200																																																										
222	2.210																																																										
223	2.220																																																										
224	2.230																																																										
225	2.240																																																										
226	2.250																																																										
227	2.260																																																										
228	2.270																																																										
229	2.280																																																										
230	2.290																																																										
231	2.300																																																										
232	2.310																																																										
233	2.320																																																										
234	2.330																																																										
235	2.340																																																										
236	2.350																																																										
237	2.360																																																										
238	2.370																																																										
239	2.380																																																										
240	2.390																																																										
241	2.400																																																										
242	2.410																																																										
243	2.420																																																										
244	2.430																																																										
245	2.440																																																										
246	2.450																																																										
247	2.460																																																										
248	2.470																																																										
249	2.480																																																										
250	2.490																																																										
251	2.500																																																										
252	2.510																																																										
253	2.520																																																										
254	2.530																																																										
255	2.540																																																										
256	2.550																																																										
257	2.560																																																										
258	2.570																																																										
259	2.580																																																										
260	2.590																																																										
261	2.600																																																										
262	2.610																																																										
263	2.620																																																										
264	2.630																																																										
265	2.640																																																										
266	2.650																																																										
267	2.660																																																										
268	2.670																																																										
269	2.680																																																										
270	2.690																																																										
271	2.700																																																										
272	2.710																																																										
273	2.720																																																										
274	2.730																																																										
275	2.740																																																										
276	2.750																																																										
277	2.760																																																										
278	2.770																																																										
279	2.780																																																										
280	2.790																																																										
281	2.800																																																										
282	2.810																																																										
283	2.820																																																										
284	2.830																																																										
285	2.840																																																										
286	2.850																																																										
287	2.860																																																										
288	2.870																																																										
289	2.880																																																										
290	2.890																																																										
291	2.900																																																										
292	2.910																																																										
293	2.920																																																										
294	2.930																																																										
295	2.940																																																										
296	2.950																																																										
297	2.960																																																										
298	2.970																																																										
299	2.980																																																										
300	2.990																																																										
301	3.000																																																										
302	3.010																																																										
303	3.020																																																										
304	3.030																																																										
305	3.040																																																										
306	3.050																																																										
307	3.060																																																										
308	3.070																																																										
309	3.080																																																										
310	3.090																																																										
311	3.100																																																										
312	3.110																																																										
313	3.120																																																										
314	3.130																																																										
315	3.140																																																										
316	3.150																																																										
317	3.160																																																										
318	3.170																																																										
319	3.180																																																										
320	3.190																																																										
321	3.200																																																										
322	3.210																																																										
323	3.220																																																										
324	3.230																																																										
325	3.240																																																										
326	3.250																																																										
327	3.260																																																										
328	3.270																																																										
329	3.280																																																										
330	3.290																																																										
331	3.300																																																										
332	3.310																																																										
333	3.320																																																										
334	3.330																																																										
335	3.340																																																										
336	3.350																																																										
337	3.360																																																										
338	3.370																																																										
339	3.380																																																										
340	3.390																																																										
341	3.400																																																										
342	3.410																																																										
343	3.420																																																										
344	3.430																																																										
345	3.440																																																										
346	3.450																																																										
347	3.460																																																										
348	3.470																																																										
349	3.480																																																										
350	3.490																																																										
351	3.500																																																										
352	3.510																																																										
353	3.520																																																										
354	3.530																																																										
355	3.540																																																										
356	3.550																																																										
357	3.560																																																										
358	3.570																																																										
359	3.580																																																										
360	3.590																																																										
361	3.600																																																										
362	3.610																																																										
363	3.620																																																										
364	3.630																																																										
365	3.640																																																										
366	3.650																																																										
367	3.660																																																										
368	3.670																																																										
369	3.680																																																										
370	3.690																																																										
371	3.700																																																										
372	3.710																																																										
373	3.720																																																										
374	3.730																																																										
375	3.740																																																										
376	3.750																																																										
377	3.760																																																										
378	3.770																																																										
379	3.780																																																										
380	3.790																																																										
381	3.800																																																										
382	3.810																																																										
383	3.820																																																										
384	3.830																																																										
385	3.840																																																										
386	3.850																																																										
387	3.860																																																										
388	3.870																																																										
389	3.880																																																										
390	3.890																																																										
391	3.900																																																										
392	3.910																																																										
393	3.920																																																										
394	3.930																																																										
395	3.940																																																										
396	3.950																																																										
397	3.960																																																										
398	3.970																																																										
399	3.980																																																										
400	3.990																																																										
401	4.000																																																										
402	4.010																																																										
403	4.020																																																										
404	4.030																																																										
405	4.040																																																										
406	4.050																																																										
407	4.060																																																										
408	4.070																																																										
409	4.080																																																										
410	4.090																																																										
411	4.100																																																										
412	4.110																																																										
413	4.120																																																										
414	4.130																																																										
415	4.140																																																										
416	4.150																																																										
417	4.160																																																										
418	4.170																																																										
419	4.180																																																										
420	4.190																																																										
421	4.200																																																										
422	4.210																																																										
423	4.220																																																										
424	4.230																																																										
425	4.240																																																										
426	4.250																																																										
427	4.260																																																										
428	4.270																																																										
429	4.280																																																										
430	4.290																																																										
431	4.300																																																										
432	4.310																																																										
433	4.320																																																										
434	4.330																																																										
435	4.340																																																										
436	4.350																																																										
437	4.360																																																										
438	4.370																																																										
439	4.380																																																										
440	4.390																																																										
441	4.400																																																										
442	4.410																																																										
443	4.420																																																										
444	4.430																																																										
445	4.440																																																										
446	4.450																																																										
447	4.460																																																										
448	4.470																																																										
449	4.480																																																										
450	4.490																																																										
451	4.500																																																										
452	4.510																																																										
453	4.520																																																										
454	4.530																																																										
455	4.540																																																										
456	4.550																																																										
457	4.560																																																										
458	4.570																																																										
459	4.580																																																										
460	4.590																																																										
461	4.600																																																										
462	4.610																																																										
463	4.620																																																										
464	4.630																																																										
465	4.640																																																										
466	4.650																																																										
467	4.660																																																										
468	4.670																																																										
469	4.680																																																										
470	4.690																																																										
471	4.700																																																										
472	4.710																																																										
473	4.720																																																										
474	4.730																																																										
475	4.740																																																										
476	4.750																																																										
477	4.760																																																										
478	4.770																																																										
479	4.780																																																										
480	4.790																																																										
481	4.800																																																										
482	4.810																																																										
483	4.820																																																										
484	4.830																																																										
485	4.840																																																										
486	4.850																																																										
487	4.860																																																										
488	4.870																																																										
489	4.880																																																										
490	4.890																																																										
491	4.900																																																										
492	4.910																																																										
493	4.920																																																										
494	4.930																																																										
495	4.940																																																										
496	4.950																																																										
497	4.960																																																										
498	4.970																																																										
499	4.980																																																										
500	4.990																																																										
501	5.000																																																										
502	5.010																																																										
503	5.020																																																										
504	5.030																																																										
505	5.040																																																										
506	5.050																																																										
507	5.060																																																										
508	5.070																																																										
509	5.080																																																										
510	5.090																																																										
511	5.100																																																										
512	5.110																																																										
513	5.120																																																										
514	5.130																																																										
515	5.140																																																										
516	5.150																																																										
517	5.160																																																										
518	5.170																																																										
519	5.180																																																										
520	5.190																																																										
521	5.200																																																										
522	5.210																																																										
523	5.220																																																										
524	5.230																																																										
525	5.240																																																										
526	5.250																																																										
527	5.260																																																										
528	5.270																																																										
529	5.280																																																										
530	5.290																																																										
531	5.300																																																										
532	5.310																																																										
533	5.320																																																										
534	5.330																																																										
535	5.340																																																										
536	5.350																																																										
537	5.360																																																										
538	5.370																																																										
539	5.380																																																										
540	5.390																																																										
541	5.400																																																										
542	5.410																																																										
543	5.420																																																										
544	5.430																																																										
545	5.440																																																										
546	5.450																																																										
547	5.460																																																										
548	5.470																																																										
549	5.480																																																										
550	5.490																																																										
551	5.500																																																										
552	5.510																																																										
553	5.520																																																										
554	5.530																																																										
555	5.540																																																										
556	5.550																																																										
557	5.560																																																										
558	5.570																																																										
559	5.580																																																										
560	5.590																																																										
561	5.600																																																										
562	5.610																																																										
563	5.620																																																										
564	5.630																																																										
565	5.640																																																										
566	5.650																																																										
567	5.660																																																										
568	5.670																																																										
569	5.680																																																										
570	5.690																																																										
571	5.700																																																										
572	5.710																																																										
573	5.720																																																										
574	5.730																																																										
575	5.740																																																										
576	5.750																																																										
577	5.760																																																										
578	5.770																																																										
579	5.780																																																										
580	5.790																																																										
581	5.800																																																										
582	5.810																																																										
583	5.820																																																										
584	5.830																																																										
585	5.840																																																										
586	5.850																																																										
587	5.860																																																										
588	5.870																																																										
589	5.880																																																										
590	5.890																																																										
591	5.900																																																										
592	5.910																																																										
593	5.920																																																										
594	5.930																																																										
595	5.940																																																										
596	5.950																																																										
597	5.960																																																										
598	5.970																																																										
599	5.980																																																										
600	5.990																																																										
601	6.000																																																										
602	6.010																																																										
603	6.020																																																										
604	6.030																																																										
605	6.040																																																										
606	6.050																																																										
607	6.060																																																										
608	6.070																																																										
609	6.080																																																										
610	6.090																																																										
611	6.100																																																										
612	6.110																																																										
613	6.120																																																										
614	6.130																																																										
615	6.140																																																										
616	6.150																																																										
617	6.160																																																										
618	6.170																																																										
619	6.180																																																										
620	6.190																																																										
621	6.200																																																										
622	6.210																																																										
623	6.220																																																										
624	6.230																																																										
625	6.240																																																										
626	6.250																																																										
627	6.260																																																										
628	6.270																																																										
629	6.280																																																										
630	6.290																																																										
631	6.300																																																										
632	6.310																																																										
633	6.320																																																										
634	6.330																																																										
635	6.340																																																										
636	6.350																																																										
637	6.360																																																										
638	6.370																																																										
639	6.380																																																										
640	6.390																																																										
641	6.400																																																										
642	6.410																																																										
643	6.420																																																										
644	6.430																																																										
645	6.440																																																										
646	6.450																																																										
647	6.460																																																										
648	6.470																																																										
649	6.480																																																										
650	6.490																																																										
651	6.500																																																										
652	6.510																																																										
653	6.520																																																										
654	6.530																																																										
655	6.540																																																										
656	6.550																																																										
657	6.560																																																										
658	6.570																																																										
659	6.580																																																										
660	6.590																																																										
661	6.600																																																										
662	6.610																																																										
663	6.620																																																										
664	6.630																																																										
665	6.640																																																										
666	6.650																																																										
667	6.660																																																										
668	6.670																																																										
669	6.680																																																										
670	6.690																																																										
671	6.700																																																										
672	6.710																																																										
673	6.720																																																										
674	6.730																																																										
675	6.740																																																										
676	6.750																																																										
677	6.760																																																										
678	6.770																																																										
679	6.780																																																										
680	6.790																																																										
681	6.800																																																										
682	6.810																																																										
683	6.820																																																										
684	6.830																																																										
685	6.840																																																										
686	6.850																																																										
687	6.860																																																										
688	6.870																																																										
689	6.880																																																										
690	6.890																																																										
691	6.900																																																										
692	6.910																																																										
693	6.920																																																										
694	6.930																																																										
695	6.940																																																										
696	6.950																																																										
697	6.960																																																										
698	6.970																																																										
699	6.980																																																										
700	6.990																																																										
701	7.000																																																										
702	7.010																																																										
703	7.020																																																										
704	7.030																																																										
705	7.040																																																										
706	7.050																																																										
707	7.060																																																										
708	7.070																																																										
709	7.080																																																										
710	7.090																																																										
711	7.100																																																										
712	7.110																																																										
713	7.120																																																										
714	7.130																																																										
715	7.140																																																										
716	7.150																																																										
717	7.160																																																										
718	7.170																																																										
719	7.180																																																										
720	7.190																																																										
721	7.200																																																										
722	7.210																																																										
723	7.220																																																										
724	7.230																																																										
725	7.240																																																										
726	7.250																																																										
727	7.260																																																										
728	7.270																																																										
729	7.280																																																										
730	7.290																																																										
731	7.300																																																										
732	7.310																																																										
733	7.320																																																										
734	7.330																																																										
735	7.340																																																										
736	7.350																																																										
737	7.360																																																										
738	7.370																																																										
739	7.380																																																										
740	7.390																																																										
741	7.400																																																										
742	7.410																																																										
743	7.420																																																										
744	7.430																																																										
745	7.440																																																										
746	7.450																																																										
747	7.460																																																										
748	7.470																																																										
749	7.480																																																										
750	7.490																																																										
751	7.500																																																										
752	7.510																																																										
753	7.520																																																										
754	7.530																																																										
755	7.540																																																										
756	7.550																																																										
757	7.560																																																										
758	7.570																																																										
759	7.580																																																										
760	7.590																																																										
761	7.600																																																										
762	7.610																																																										
763	7.620																																																										
764	7.630																																																										
765	7.640																																																										
766	7.650																																																										
767	7.660																																																										
768	7.670																																																										
769	7.680																																																										
770	7.690																																																										
771	7.700																																																										
772	7.710																																																										
773	7.720																																																										
774	7.730																																																										
775	7.740																																																										
776	7.750																																																										
777	7.760																																																										
778	7.770																																																										
779	7.780																																																										
780	7.790																																																										
781	7.800																																																										
782	7.810																																																										
783	7.820																																																										
784	7.830																																																										
785	7.840																																																										
786	7.850																																																										
787	7.860																																																										
788	7.870																																																										
789	7.880																																																										
790	7.890																																																										
791	7.900																																																										
792	7.910																																																										
793	7.920																																																										
794	7.930																																																										
795	7.940																																																										
796	7.950																																																										
797	7.960																																																										
798	7.970																																																										
799	7.980																																																										
800	7.990																																																										
801	8.000																																																										
802	8.010																																																										
803	8.020																																																										
804	8.030																																																										
805	8.040																																																										
806	8.050																																																										
807	8.060																																																										
808	8.070																																																										
809	8.080																																																										
810	8.090																																																										
811	8.100																																																										
812	8.110																																																										
813	8.120																																																										
814	8.130																																																										
815	8.140																																																										
816	8.150																																																										
817	8.160																																																										
818	8.170																																																										
819	8.180																																																										
820	8.190																																																										
821	8.200																																																										
822	8.210																																																										
823	8.220																																																										
824	8.230																																																										
825	8.240																																																										
826	8.250																																																										
827	8.260																																																										
828	8.270																																																										
829	8.280																																																										
830	8.290																																																										
831	8.300																																																										
832	8.310																																																										
833	8.320																																																										
834	8.330																																																										
835	8.340																																																										
836	8.350																																																										
837	8.360																																																										
838	8.370																																																										
839	8.380																																																										
840	8.390																																																										
841	8.400																																																										
842	8.410																																																										
843	8.420																																																										
844	8.430																																																										
845	8.440																																																										
846	8.450																																																										
847	8.460																																																										
848	8.470																																																										
849	8.480																																																										
850	8.490																																																										
851	8.500																																																										
852	8.510																																																										
853	8.520																																																										
854	8.530																																																										
855	8.540																																																										
856	8.550																																																										
857	8.560																																																										
858	8.570																																																										
859	8.580																																																										
860	8.590																																																										
861	8.600																																																										
862	8.610																																																										
863	8.620																																																										
864	8.630																																																										
865	8.640																																																										
866	8.650																																																										
867	8.660																																																										
868	8.670																																																										
869	8.680																																																										
870	8.690																																																										
871	8.700																																																										
872	8.710																																																										
873	8.720																																																										
874	8.730																																																										
875	8.740																																																										
876	8.750																																																										
877	8.760																																																										
878	8.770																																																										
879	8.780																																																										
880	8.790																																																										
881	8.800																																																										
882	8.810																																																										
883	8.820																																																										
884	8.830																																																										
885	8.840																																																										
886	8.850																																																										
887	8.860																																																										
888	8.870																																																										
889	8.880																																																										
890	8.890																																																										
891	8.900																																																										
892	8.910																																																										
893	8.920																																																										
894	8.930																																																										
895	8.940																																																										
896	8.950																																																										
897	8.960																																																										
898	8.970																																																										
899	8.980																																																										
900	8.990																																																										
901	9.000																																																										
902	9.010																																																										
903	9.020																																																										
904	9.030																																																										
905	9.040																																																										
906	9.050																																																										
907	9.060																																																										
908	9.070																																																										
909	9.080																																																										
910	9.090																																																										
911	9.100																																																										
912	9.110																																																										
913	9.120																																																										
914	9.130																																																										
915	9.140																																																										
916	9.150																																																										
917	9.160																																																										
918	9.170																																																										
919	9.180																																																										
920	9.190																																																										
921	9.200																																																										
922	9.210																																																										
923	9.220																																																										
924	9.230																																																										
925	9.240																																																										
926	9.250																																																										
927	9.260																																																										
928	9.270																																																										
929	9.280																																																										
930	9.290																																																										
931	9.300																																																										
932	9.310																																																										
933	9.320																																																										
934	9.330																																																										
935	9.340																																																										
936	9.350																																																										
937	9.360																																																										
938	9.370																																																										
939	9.380																																																										
940	9.390																																																										
941	9.400																																																										
942	9.410																																																										
943	9.420																																																										
944	9.430																																																										
945	9.440																																																										
946	9.450																																																										
947	9.460																																																										
948	9.470																																																										
949	9.480																																																										
950	9.490																																																										
951	9.500																																																										
952	9.510																																																										
953	9.520																																																										
954	9.530																																																										
955	9.540																																																										
956	9.550																																																										
957	9.560																																																										
958	9.570																																																										
959	9.580																																																										
960	9.590																																																										
961	9.600																																																										
962	9.610																																																										
963	9.620																																																										
964	9.630																																																										
965	9.640																																																										
966	9.650																																																										
967	9.660																																																										
968	9.670																																																										
969	9.680																																																										
970	9.690																																																										
971	9.700																																																										
972	9.710																																																										
973	9.720																																																										
974	9.730																																																										
975	9.740																																																										
976	9.750																																																										
977	9.760																																																										
978	9.770																																																										
979	9.780																																																										
980	9.790																																																										
981	9.800																																																										
982	9.810																																																										
983	9.820																																																										
984	9.830																																																										
985	9.840																																																										
986	9.850																																																										
987	9.860																																																										
988	9.870																																																										
989	9.880																																																										
990	9.890																																																										
991	9.900																																																										
992	9.910																																																										
993	9.920																																																										
994	9.930																																																										
995	9.940																																																										
996	9.950																																																										
997	9.960																																																										
998	9.970																																																										
999	9.980																																																										
1000	9.990																																																										
1001	10.000																																																										
1002	10.010																																																										
1003	10.020																																																										
1004	10.030																																																										
1005	10.040																																																										
1006	10.050																																																										
1007	10.060																																																										
1008	10.070																																																										
1009	10.080																																																										
1010	10.090																																																										
1011	10.100																																																										
1012	10.110																																																										
1013	10.120																																																										
1014	10.130																																																										
1015	10.140																																																										
1016	10.150																																																										
1017	10.160																																																										
1018	10.170																																																										
1019	10.180																																																										
1020	10.190																																																										
1021	10.200																																																										
1022	10.210																																																										
1023	10.220																																																										
1024	10.230																																																										
1025	10.240																																																										
1026	10.250																																																										
1027	10.260																																																										
1028	10.270																																																										
1029	10.280																																																										
1030	10.290																																																										
1031	10.300																																																										
1032	10.310																																																										
1033	10.320																																																										
1034	10.330																																																										
1035	10.340																																																										
1036	10.350																																																										
1037	10.360																																																										
1038	10.370																																																										
1039	10.380																																																										
1040	10.390																																																										
1041	10.400																																																										
1042	10.410																																																										
1043	10.420																																																										
1044	10.430																																																										
1045	10.440																																																										
1046	10.450																																																										
1047	10.460																																																										
1048	10.470																																																										
1049	10.480																																																										
1050	10.490																																																										
1051	10.500																																																										
1052	10.510																																																										
1053	10.520																																																										
1054	10.530																																																										
1055	10.540																																																										
1056	10.550																																																										
1057	10.560																																																										
1058	10.570																																																										
1059	10.580																																																										
1060	10.590																																																										
1061	10.600																																																										
1062	10.610																																																										
1063	10.620																																																										
1064	10.630																																																										
1065	10.640																																																										
1066	10.650																																																										
1067	10.660																																																										
1068	10.670																																																										
1069	10.680																																																										
1070	10.690																																																										
1071	10.700																																																										
1072	10.710																																																										
1073	10.720																																																										
1074	10.730																																																										
1075	10.740																																																										
1076	10.750																																																										
1077	10.760																																																										
1078	10.770																																																										
1079	10.780																																																										
1080	10.790																																																										
1081	10.800																																																										
1082	10.810																																																										
1083	10.820																																																										
1084	10.830																																																										
1085	10.840																																																										
1086	10.850																																																										
1087	10.860																																																										
1088	10.870																																																										
1089	10.880																																																										
1090	10.890																																																										
1091	10.900																																																										
1092	10.910																																																										
1093	10.920																																																										
1094	10.930																																																										
1095	10.940																																																										
1096	10.950																																																										
1097	10.960																																																										
1098	10.970																																																										
1099	10.980																																																										
1100	10.990																																																										
1101	11.000																																																										
1102	11.010																																																										
1103	11.020																																																										
1104	11.030																																																										
1105	11.040																																																										
1106	11.050																																																										
1107	11.060																																																										
1108	11.070																																																										
1109	11.080																																																										
1110	11.090																																																										
1111	11.100																																																										
1112	11.110																																																										
1113	11.120																																																										
1114	11.130																																																										
1115	11.140																																																										
1116	11.150																																																										
1117	11.160																																																										
1118	11.170																																																										
1119	11.180																																																										
1120	11.190																																																										
1121	11.200																																																										
1122	11.210																																																										
1123	11.220																																																										
1124	11.230																																																										
1125	11.240																																																										
1126	11.250																																																										
1127	11.260																																																										
1128	11.270																																																										
1129	11.280																																																										
1130	11.290																																																										
1131	11.300																																																										
1132	11.310																																																										
1133	11.320																																																										
1134	11.330																																																										
1135	11.340																																																										
1136	11.350																																																										
1137	11.360																																																										
1138	11.370																																																										
1139	11.380																																																										
1140	11.390																																																										
1141	11.400																																																										
1142	11.410																																																										
