PathFileType	4	(X/Y/Z)	C:\Users\WrightLab\Desktop\Jo\P4V114.trc
DataRate	CameraRate	NumFrames	NumMarkers	Units	OrigDataRate	OrigDataStartFrame	OrigNumFrames
100.00	100.00	       470	19	mm	100.00	1	       470
Frame#	Time	Headset_Front			Headset_Back			Headset_Left			Headset_Right			Left_Shoulder			Right_Shoulder			Sternum			C7			Left Elbow			Right Elbow			Left Wrist			Right Wrist			Left ASIS			Right ASIS			S2			Left Knee			Right Knee			Left Ankle			Right Ankle			
		X1	Y1	Z1	X2	Y2	Z2	X3	Y3	Z3	X4	Y4	Z4	X5	Y5	Z5	X6	Y6	Z6	X7	Y7	Z7	X8	Y8	Z8	X9	Y9	Z9	X10	Y10	Z10	X11	Y11	Z11	X12	Y12	Z12	X13	Y13	Z13	X14	Y14	Z14	X15	Y15	Z15	X16	Y16	Z16	X17	Y17	Z17	X18	Y18	Z18	X19	Y19	Z19	

1	0.000																																																										
2	0.010																																																										
3	0.020																																																										
4	0.030																																																										
5	0.040																																																										
6	0.050																																																										
7	0.060																																																										
8	0.070																																																										
9	0.080																																																										
10	0.090																																																										
11	0.100																																																										
12	0.110																																																										
13	0.120																																																										
14	0.130																																																										
15	0.140																																																										
16	0.150																																																										
17	0.160																																																										
18	0.170																																																										
19	0.180																																																										
20	0.190																																																										
21	0.200																																																										
22	0.210																																																										
23	0.220																																																										
24	0.230																																																										
25	0.240																																																										
26	0.250																																																										
27	0.260																																																										
28	0.270																																																										
29	0.280																																																										
30	0.290																																																										
31	0.300																																																										
32	0.310																																																										
33	0.320																																																										
34	0.330																																																										
35	0.340																																																										
36	0.350																																																										
37	0.360																																																										
38	0.370																																																										
39	0.380																																																										
40	0.390																																																										
41	0.400																																																										
42	0.410																																																										
43	0.420																																																										
44	0.430																																																										
45	0.440																																																										
46	0.450																																																										
47	0.460																																																										
48	0.470																																																										
49	0.480																																																										
50	0.490																																																										
51	0.500																																																										
52	0.510																																																										
53	0.520																																																										
54	0.530																																																										
55	0.540																																																										
56	0.550																																																										
57	0.560																																																										
58	0.570																																																										
59	0.580																																																										
60	0.590																																																										
61	0.600																																																										
62	0.610																																																										
63	0.620																																																										
64	0.630																																																										
65	0.640																																																										
66	0.650																																																										
67	0.660																																																										
68	0.670																																																										
69	0.680																																																										
70	0.690																																																										
71	0.700																																																										
72	0.710																																																										
73	0.720																																																										
74	0.730																																																										
75	0.740																																																										
76	0.750																																																										
77	0.760																																																										
78	0.770																																																										
79	0.780																																																										
80	0.790																																																										
81	0.800																																																										
82	0.810																																																										
83	0.820																																																										
84	0.830																																																										
85	0.840																																																										
86	0.850																																																										
87	0.860																																																										
88	0.870																																																										
89	0.880																																																										
90	0.890																																																										
91	0.900																																																										
92	0.910																																																										
93	0.920																																																										
94	0.930																																																										
95	0.940																																																										
96	0.950																																																										
97	0.960																																																										
98	0.970																																																										
99	0.980																																																										
100	0.990																																																										
101	1.000																																																										
102	1.010																																																										
103	1.020																																																										
104	1.030																																																										
105	1.040																																																										
106	1.050																																																										
107	1.060																																																										
108	1.070																																																										
109	1.080																																																										
110	1.090																																																										
111	1.100																																																										
112	1.110																																																										
113	1.120																																																										
114	1.130																																																										
115	1.140																																																										
116	1.150																																																										
117	1.160																																																										
118	1.170																																																										
119	1.180																																																										
120	1.190																																																										
121	1.200																																																										
122	1.210																																																										
123	1.220																																																										
124	1.230																																																										
125	1.240																																																										
126	1.250																																																										
127	1.260																																																										
128	1.270																																																										
129	1.280																																																										
130	1.290																																																										
131	1.300																																																										
132	1.310																																																										
133	1.320																																																										
134	1.330																																																										
135	1.340																																																										
136	1.350																																																										
137	1.360																																																										
138	1.370																																																										
139	1.380																																																										
140	1.390																																																										
141	1.400																																																										
142	1.410																																																										
143	1.420																																																										
144	1.430																																																										
145	1.440																																																										
146	1.450																																																										
147	1.460																																																										
148	1.470																																																										
149	1.480																																																										
150	1.490																																																										
151	1.500																																																										
152	1.510																																																										
153	1.520																																																										
154	1.530																																																										
155	1.540																																																										
156	1.550																																																										
157	1.560																																																										
158	1.570																																																										
159	1.580																																																										
160	1.590																																																										
161	1.600																																																										
162	1.610																																																										
163	1.620																																																										
164	1.630																																																										
165	1.640																																																										
166	1.650																																																										
167	1.660																																																										
168	1.670																																																										
169	1.680																																																										
170	1.690																																																										
171	1.700																																																										
172	1.710																																																										
173	1.720																																																										
174	1.730																																																										
175	1.740																																																										
176	1.750																																																										
177	1.760																																																										
178	1.770																																																										
179	1.780																																																										
180	1.790																																																										
181	1.800																																																										
182	1.810																																																										
183	1.820																																																										
184	1.830																																																										
185	1.840																																																										
186	1.850																																																										
187	1.860																																																										
188	1.870																																																										
189	1.880																																																										
190	1.890																																																										
191	1.900																																																										
192	1.910																																																										
193	1.920																																																										
194	1.930																																																										
195	1.940																																																										
196	1.950																																																										
197	1.960																																																										
198	1.970																																																										
199	1.980																																																										
200	1.990																																																										
201	2.000																																																										
202	2.010																																																										
203	2.020																																																										
204	2.030																																																										
205	2.040																																																										
206	2.050																																																										
207	2.060																																																										
208	2.070																																																										
209	2.080																																																										
210	2.090																																																										
211	2.100																																																										
212	2.110																																																										
213	2.120																																																										
214	2.130																																																										
215	2.140																																																										
216	2.150																																																										
217	2.160																																																										
218	2.170																																																										
219	2.180																																																										
220	2.190																																																										
221	2.200																																																										
222	2.210																																																										
223	2.220																																																										
224	2.230																																																										
225	2.240																																																										
226	2.250																																																										
227	2.260																																																										
228	2.270																																																										
229	2.280																																																										
230	2.290																																																										
231	2.300																																																										
232	2.310																																																										
233	2.320																																																										
234	2.330																																																										
235	2.340																																																										
236	2.350																																																										
237	2.360																																																										
238	2.370																																																										
239	2.380																																																										
240	2.390																																																										
241	2.400																																																										
242	2.410																																																										
243	2.420																																																										
244	2.430																																																										
245	2.440																																																										
246	2.450																																																										
247	2.460																																																										
248	2.470																																																										
249	2.480																																																										
250	2.490																																																										
251	2.500																																																										
252	2.510																																																										
253	2.520																																																										
254	2.530																																																										
255	2.540																																																										
256	2.550																																																										
257	2.560																																																										
258	2.570																																																										
259	2.580																																																										
260	2.590																																																										
261	2.600																																																										
262	2.610																																																										
263	2.620																																																										
264	2.630																																																										
265	2.640																																																										
266	2.650																																																										
267	2.660																																																										
268	2.670																																																										
269	2.680																																																										
270	2.690																																																										
271	2.700																																																										
272	2.710																																																										
273	2.720																																																										
274	2.730																																																										
275	2.740																																																										
276	2.750																																																										
277	2.760																																																										
278	2.770																																																										
279	2.780																																																										
280	2.790																																																										
281	2.800																																																										
282	2.810																																																										
283	2.820																																																										
284	2.830																																																										
285	2.840																																																										
286	2.850																																																										
287	2.860																																																										
288	2.870																																																										
289	2.880																																																										
290	2.890																																																										
291	2.900																																																										
292	2.910																																																										
293	2.920																																																										
294	2.930																																																										
295	2.940																																																										
296	2.950																																																										
297	2.960																																																										
298	2.970																																																										
299	2.980																																																										
300	2.990																																																										
301	3.000																																																										
302	3.010																																																										
303	3.020																																																										
304	3.030																																																										
305	3.040																																																										
306	3.050																																																										
307	3.060																																																										
308	3.070																																																										
309	3.080																																																										
310	3.090																																																										
311	3.100																																																										
312	3.110																																																										
313	3.120																																																										
314	3.130																																																										
315	3.140																																																										
316	3.150																																																										
317	3.160																																																										
318	3.170																																																										
319	3.180																																																										
320	3.190																																																										
321	3.200																																																										
322	3.210																																																										
323	3.220																																																										
324	3.230																																																										
325	3.240																																																										
326	3.250																																																										
327	3.260																																																										
328	3.270																																																										
329	3.280																																																										
330	3.290																																																										
331	3.300																																																										
332	3.310																																																										
333	3.320																																																										
334	3.330																																																										
335	3.340																																																										
336	3.350																																																										
337	3.360																																																										
338	3.370																																																										
339	3.380																																																										
340	3.390																																																										
341	3.400																																																										
342	3.410																																																										
343	3.420																																																										
344	3.430																																																										
345	3.440																																																										
346	3.450																																																										
347	3.460																																																										
348	3.470																																																										
349	3.480																																																										
350	3.490																																																										
351	3.500																																																										
352	3.510																																																										
353	3.520																																																										
354	3.530																																																										
355	3.540																																																										
356	3.550																																																										
357	3.560																																																										
358	3.570																																																										
359	3.580																																																										
360	3.590																																																										
361	3.600																																																										
362	3.610																																																										
363	3.620																																																										
364	3.630																																																										
365	3.640																																																										
366	3.650																																																										
367	3.660																																																										
368	3.670																																																										
369	3.680																																																										
370	3.690																																																										
371	3.700																																																										
372	3.710																																																										
373	3.720																																																										
374	3.730																																																										
375	3.740																																																										
376	3.750																																																										
377	3.760																																																										
378	3.770																																																										
379	3.780																																																										
380	3.790																																																										
381	3.800																																																										
382	3.810																																																										
383	3.820																																																										
384	3.830																																																										
385	3.840																																																										
386	3.850																																																										
387	3.860																																																										
388	3.870																																																										
389	3.880																																																										
390	3.890																																																										
391	3.900																																																										
392	3.910																																																										
393	3.920																																																										
394	3.930																																																										
395	3.940																																																										
396	3.950																																																										
397	3.960																																																										
398	3.970																																																										
399	3.980																																																										
400	3.990																																																										
401	4.000																																																										
402	4.010																																																										
403	4.020																																																										
404	4.030																																																										
405	4.040																																																										
406	4.050																																																										
407	4.060																																																										
408	4.070																																																										
409	4.080																																																										
410	4.090																																																										
411	4.100																																																										
412	4.110																																																										
413	4.120																																																										
414	4.130																																																										
415	4.140																																																										
416	4.150																																																										
417	4.160																																																										
418	4.170																																																										
419	4.180																																																										
420	4.190																																																										
421	4.200																																																										
422	4.210																																																										
423	4.220																																																										
424	4.230																																																										
425	4.240																																																										
426	4.250																																																										
427	4.260																																																										
428	4.270																																																										
429	4.280																																																										
430	4.290																																																										
431	4.300																																																										
432	4.310																																																										
433	4.320																																																										
434	4.330																																																										
435	4.340																																																										
436	4.350																																																										
437	4.360																																																										
438	4.370																																																										
439	4.380																																																										
440	4.390																																																										
441	4.400																																																										
442	4.410																																																										
443	4.420																																																										
444	4.430																																																										
445	4.440																																																										
446	4.450																																																										
447	4.460																																																										
448	4.470																																																										
449	4.480																																																										
450	4.490																																																										
451	4.500																																																										
452	4.510																																																										
453	4.520																																																										
454	4.530																																																										
455	4.540																																																										
456	4.550																																																										
457	4.560																																																										
458	4.570																																																										
459	4.580																																																										
460	4.590																																																										
461	4.600																																																										
462	4.610																																																										
463	4.620																																																										
464	4.630																																																										
465	4.640																																																										
466	4.650																																																										
467	4.660																																																										
468	4.670																																																										
469	4.680																																																										
470	4.690																																																										
